{
  "type": "FeatureCollection",
  "features": [
    {
      "type": "Feature",
      "properties": {
        "norad_id": 34010,
        "name": "COSMOS 2251 DEB",
        "group": "cosmos-2251-debris",
        "lat": -65.35246888655331,
        "lon": -142.0161732625575,
        "alt_km": 512.4153239115922,
        "timestamp": "2025-12-25T09:48:52.682563+00:00",
        "meta_object_name": "COSMOS 2251 DEB",
        "meta_object_id": "1993-036GV",
        "meta_epoch": "2025-12-25T03:48:40.195584",
        "meta_mean_motion": 15.20766329,
        "meta_eccentricity": 0.0005014,
        "meta_inclination": 73.9967,
        "meta_ra_of_asc_node": 257.2293,
        "meta_arg_of_pericenter": 58.1963,
        "meta_mean_anomaly": 301.9722,
        "meta_ephemeris_type": 0,
        "meta_classification_type": "U",
        "meta_norad_cat_id": 34010,
        "meta_element_set_no": 999,
        "meta_rev_at_epoch": 89474,
        "meta_bstar": 0.0039606,
        "meta_mean_motion_dot": 0.00088322,
        "meta_mean_motion_ddot": 0,
        "tle_line1": "1 34010U 93036GV  25359.15879856  .00088322  00000+0  39606-2 0  9990",
        "tle_line2": "2 34010  73.9967 257.2293 0005014  58.1963 301.9722 15.20766329894740"
      },
      "geometry": {
        "type": "Point",
        "coordinates": [
          -142.0161732625575,
          -65.35246888655331
        ]
      }
    },
    {
      "type": "Feature",
      "properties": {
        "norad_id": 34011,
        "name": "COSMOS 2251 DEB",
        "group": "cosmos-2251-debris",
        "lat": 63.331709164985966,
        "lon": 91.83832419561914,
        "alt_km": 743.5057618997535,
        "timestamp": "2025-12-25T09:48:52.682575+00:00",
        "meta_object_name": "COSMOS 2251 DEB",
        "meta_object_id": "1993-036GW",
        "meta_epoch": "2025-12-24T06:39:29.454336",
        "meta_mean_motion": 14.4182197,
        "meta_eccentricity": 0.00362711,
        "meta_inclination": 74.0149,
        "meta_ra_of_asc_node": 308.7381,
        "meta_arg_of_pericenter": 29.1397,
        "meta_mean_anomaly": 331.1772,
        "meta_ephemeris_type": 0,
        "meta_classification_type": "U",
        "meta_norad_cat_id": 34011,
        "meta_element_set_no": 999,
        "meta_rev_at_epoch": 88082,
        "meta_bstar": 0.00081101718,
        "meta_mean_motion_dot": 2.646e-05,
        "meta_mean_motion_ddot": 0,
        "tle_line1": "1 34011U 93036GW  25358.27742424  .00002646  00000+0  81102-3 0  9997",
        "tle_line2": "2 34011  74.0149 308.7381 0036271  29.1397 331.1772 14.41821970880823"
      },
      "geometry": {
        "type": "Point",
        "coordinates": [
          91.83832419561914,
          63.331709164985966
        ]
      }
    },
    {
      "type": "Feature",
      "properties": {
        "norad_id": 34014,
        "name": "COSMOS 2251 DEB",
        "group": "cosmos-2251-debris",
        "lat": 37.841027411235274,
        "lon": -91.12691833963265,
        "alt_km": 621.2959316485476,
        "timestamp": "2025-12-25T09:48:52.682586+00:00",
        "meta_object_name": "COSMOS 2251 DEB",
        "meta_object_id": "1993-036GZ",
        "meta_epoch": "2025-12-25T01:46:45.179328",
        "meta_mean_motion": 14.73279869,
        "meta_eccentricity": 0.0037591,
        "meta_inclination": 74.0164,
        "meta_ra_of_asc_node": 256.6608,
        "meta_arg_of_pericenter": 32.8957,
        "meta_mean_anomaly": 31.7606,
        "meta_ephemeris_type": 0,
        "meta_classification_type": "U",
        "meta_norad_cat_id": 34014,
        "meta_element_set_no": 999,
        "meta_rev_at_epoch": 89485,
        "meta_bstar": 0.00096895,
        "meta_mean_motion_dot": 6.307e-05,
        "meta_mean_motion_ddot": 0,
        "tle_line1": "1 34014U 93036GZ  25359.07413402  .00006307  00000+0  96895-3 0  9993",
        "tle_line2": "2 34014  74.0164 256.6608 0037591  32.8957  31.7606 14.73279869894851"
      },
      "geometry": {
        "type": "Point",
        "coordinates": [
          -91.12691833963265,
          37.841027411235274
        ]
      }
    },
    {
      "type": "Feature",
      "properties": {
        "norad_id": 34015,
        "name": "COSMOS 2251 DEB",
        "group": "cosmos-2251-debris",
        "lat": -65.28777322338564,
        "lon": 96.72145818126376,
        "alt_km": 690.7176431640728,
        "timestamp": "2025-12-25T09:48:52.682596+00:00",
        "meta_object_name": "COSMOS 2251 DEB",
        "meta_object_id": "1993-036HA",
        "meta_epoch": "2025-12-24T20:01:55.667712",
        "meta_mean_motion": 14.60394498,
        "meta_eccentricity": 0.00209532,
        "meta_inclination": 74.0243,
        "meta_ra_of_asc_node": 136.3167,
        "meta_arg_of_pericenter": 233.1118,
        "meta_mean_anomaly": 277.8758,
        "meta_ephemeris_type": 0,
        "meta_classification_type": "U",
        "meta_norad_cat_id": 34015,
        "meta_element_set_no": 999,
        "meta_rev_at_epoch": 88707,
        "meta_bstar": 0.0012459859,
        "meta_mean_motion_dot": 6.025e-05,
        "meta_mean_motion_ddot": 0,
        "tle_line1": "1 34015U 93036HA  25358.83467208  .00006025  00000+0  12460-2 0  9992",
        "tle_line2": "2 34015  74.0243 136.3167 0020953 233.1118 277.8758 14.60394498887072"
      },
      "geometry": {
        "type": "Point",
        "coordinates": [
          96.72145818126376,
          -65.28777322338564
        ]
      }
    },
    {
      "type": "Feature",
      "properties": {
        "norad_id": 34018,
        "name": "COSMOS 2251 DEB",
        "group": "cosmos-2251-debris",
        "lat": 54.61342245694571,
        "lon": 94.65516687519934,
        "alt_km": 817.6519130994493,
        "timestamp": "2025-12-25T09:48:52.682606+00:00",
        "meta_object_name": "COSMOS 2251 DEB",
        "meta_object_id": "1993-036HD",
        "meta_epoch": "2025-12-25T04:27:46.766880",
        "meta_mean_motion": 13.81085316,
        "meta_eccentricity": 0.026312,
        "meta_inclination": 73.878,
        "meta_ra_of_asc_node": 71.0047,
        "meta_arg_of_pericenter": 104.4987,
        "meta_mean_anomaly": 287.5199,
        "meta_ephemeris_type": 0,
        "meta_classification_type": "U",
        "meta_norad_cat_id": 34018,
        "meta_element_set_no": 999,
        "meta_rev_at_epoch": 84829,
        "meta_bstar": 0.00034802,
        "meta_mean_motion_dot": 4.57e-06,
        "meta_mean_motion_ddot": 0,
        "tle_line1": "1 34018U 93036HD  25359.18595795  .00000457  00000+0  34802-3 0  9995",
        "tle_line2": "2 34018  73.8780  71.0047 0263120 104.4987 287.5199 13.81085316848295"
      },
      "geometry": {
        "type": "Point",
        "coordinates": [
          94.65516687519934,
          54.61342245694571
        ]
      }
    },
    {
      "type": "Feature",
      "properties": {
        "norad_id": 34019,
        "name": "COSMOS 2251 DEB",
        "group": "cosmos-2251-debris",
        "lat": 67.91160379659658,
        "lon": 72.61057692388428,
        "alt_km": 801.1063778194994,
        "timestamp": "2025-12-25T09:48:52.682616+00:00",
        "meta_object_name": "COSMOS 2251 DEB",
        "meta_object_id": "1993-036HE",
        "meta_epoch": "2025-12-25T03:01:55.229952",
        "meta_mean_motion": 14.33989742,
        "meta_eccentricity": 0.0062167,
        "meta_inclination": 73.9533,
        "meta_ra_of_asc_node": 27.9594,
        "meta_arg_of_pericenter": 207.2863,
        "meta_mean_anomaly": 209.5479,
        "meta_ephemeris_type": 0,
        "meta_classification_type": "U",
        "meta_norad_cat_id": 34019,
        "meta_element_set_no": 999,
        "meta_rev_at_epoch": 87698,
        "meta_bstar": 0.00070877,
        "meta_mean_motion_dot": 1.995e-05,
        "meta_mean_motion_ddot": 0,
        "tle_line1": "1 34019U 93036HE  25359.12633368  .00001995  00000+0  70877-3 0  9999",
        "tle_line2": "2 34019  73.9533  27.9594 0062167 207.2863 209.5479 14.33989742876989"
      },
      "geometry": {
        "type": "Point",
        "coordinates": [
          72.61057692388428,
          67.91160379659658
        ]
      }
    },
    {
      "type": "Feature",
      "properties": {
        "norad_id": 34021,
        "name": "COSMOS 2251 DEB",
        "group": "cosmos-2251-debris",
        "lat": -3.235988735916878,
        "lon": -73.03146564558459,
        "alt_km": 722.5048813146041,
        "timestamp": "2025-12-25T09:48:52.682626+00:00",
        "meta_object_name": "COSMOS 2251 DEB",
        "meta_object_id": "1993-036HG",
        "meta_epoch": "2025-12-24T02:19:09.727104",
        "meta_mean_motion": 14.4998687,
        "meta_eccentricity": 0.00209726,
        "meta_inclination": 74.036,
        "meta_ra_of_asc_node": 108.5044,
        "meta_arg_of_pericenter": 251.5081,
        "meta_mean_anomaly": 284.5816,
        "meta_ephemeris_type": 0,
        "meta_classification_type": "U",
        "meta_norad_cat_id": 34021,
        "meta_element_set_no": 999,
        "meta_rev_at_epoch": 88794,
        "meta_bstar": 0.00045043556,
        "meta_mean_motion_dot": 1.721e-05,
        "meta_mean_motion_ddot": 0,
        "tle_line1": "1 34021U 93036HG  25358.09664036  .00001721  00000+0  45044-3 0  9998",
        "tle_line2": "2 34021  74.0360 108.5044 0020972 251.5081 284.5816 14.49986870887942"
      },
      "geometry": {
        "type": "Point",
        "coordinates": [
          -73.03146564558459,
          -3.235988735916878
        ]
      }
    }
  ]
}